MALLIGYONG-1            
1 58400U 23179A   24226.86018804  .00013749  00000+0  60436-3 0  9995
2 58400  97.3951 112.7336 0002205  50.0902 310.0527 15.22010956 40497
